OBJECT_NAME,OBJECT_ID,EPOCH,MEAN_MOTION,ECCENTRICITY,INCLINATION,RA_OF_ASC_NODE,ARG_OF_PERICENTER,MEAN_ANOMALY,EPHEMERIS_TYPE,CLASSIFICATION_TYPE,NORAD_CAT_ID,ELEMENT_SET_NO,REV_AT_EPOCH,BSTAR,MEAN_MOTION_DOT,MEAN_MOTION_DDOT
STARLINK-5183,2022-136AK,2026-06-05T03:17:46.881888,15.08820578,.0001959,53.1802,301.6689,92.6671,267.4545,0,U,54084,999,20018,.33556E-3,.5054E-4,0
STARLINK-5166,2022-136AL,2026-06-05T03:03:13.392576,15.08838418,.0001439,53.1806,301.5987,46.1523,313.9587,0,U,54085,999,20018,.71864E-4,.856E-5,0
STARLINK-5211,2022-136AM,2026-06-05T01:31:06.827808,15.08834092,.0001429,53.1840,286.9576,67.9385,292.1759,0,U,54086,999,20038,-.29817E-5,-.335E-5,0
STARLINK-5184,2022-136AN,2026-06-03T13:34:54.656832,15.08823935,.00015978,53.1851,308.2250,129.6694,230.4439,0,U,54087,999,19995,.22259035E-3,.3255E-4,0
STARLINK-5153,2022-136AP,2026-06-05T03:12:27.288288,15.08837399,.0000862,53.1824,301.6378,108.2450,251.8636,0,U,54088,999,20018,.71384E-4,.848E-5,0
STARLINK-5143,2022-136AQ,2026-06-05T02:40:36.136704,15.08848636,.0001561,53.1812,301.5175,107.6026,252.5137,0,U,54089,999,20018,.14038E-3,.1947E-4,0
STARLINK-5177,2022-136AR,2026-06-05T02:45:52.637184,15.08882190,.0001567,53.1769,301.5322,70.5658,289.5503,0,U,54090,999,20018,.78719E-3,.12277E-3,0
STARLINK-5221,2022-136AS,2026-06-04T16:31:10.197408,15.08833629,.0001618,53.1806,303.1397,56.8285,303.2861,0,U,54091,999,20012,.57794E-5,-.196E-5,0
STARLINK-5190,2022-136AT,2026-06-05T00:55:13.649088,15.80837651,.000282,53.1726,101.2112,76.2377,283.8959,0,U,54092,999,20298,.57922E-3,.114979E-2,0
STARLINK-5213,2022-136AU,2026-06-05T02:24:42.455232,15.08832085,.0001157,53.1809,301.4380,76.4084,283.7036,0,U,54093,999,20018,-.20297E-5,-.32E-5,0
STARLINK-5193,2022-136AW,2026-06-05T02:14:05.675136,15.08831872,.0001151,53.1804,301.3895,88.5688,271.5436,0,U,54095,999,20018,.27509E-4,.15E-5,0
STARLINK-5188,2022-136AX,2026-06-05T02:30:00.897120,15.08833763,.0001242,53.1801,301.4649,115.4880,244.6240,0,U,54096,999,20018,.30334E-4,.195E-5,0
STARLINK-5197,2022-136AY,2026-06-04T15:33:36.233856,15.08830947,.00013719,53.1798,278.6464,73.6589,286.4554,0,U,54097,999,20046,.50186485E-4,.511E-5,0
STARLINK-5217,2022-136AZ,2026-06-04T16:37:58.229184,15.08834240,.0001348,53.1814,303.8550,110.3046,249.8091,0,U,54098,999,20011,.36773E-4,.297E-5,0
STARLINK-5198,2022-136BA,2026-06-04T16:25:51.625056,15.08838196,.0001614,53.1824,303.1077,59.3696,300.7455,0,U,54099,999,20012,-.1941E-4,-.597E-5,0
STARLINK-5185,2022-136BB,2026-06-05T02:19:24.263040,15.08830842,.0001025,53.1822,301.4136,87.9697,272.1412,0,U,54100,999,20018,.16661E-4,-.23E-6,0
STARLINK-5204,2022-136BC,2026-06-05T02:20:07.268640,15.08839084,.0001323,53.1815,286.4652,83.8442,276.2700,0,U,54101,999,20039,.70748E-4,.838E-5,0
STARLINK-5179,2022-136BD,2026-06-05T03:01:51.163968,15.08816983,.0001052,53.1788,301.5895,96.7511,263.3601,0,U,54102,999,20018,.36194E-3,.5474E-4,0
STARLINK-5200,2022-136BE,2026-06-03T15:23:34.588320,15.08832109,.0001225,53.1837,288.0326,100.7128,259.4002,0,U,54103,999,20024,-.12623E-5,-.308E-5,0
STARLINK-5203,2022-136BF,2026-06-03T21:12:38.020032,15.08829715,.0002045,53.1831,271.7279,35.1656,324.9471,0,U,54104,999,20049,.50805E-5,-.207E-5,0
STARLINK-5290,2022-141A,2026-06-04T16:48:34.280064,15.08776939,.0001823,53.1877,343.4394,98.7283,261.3915,0,U,54157,999,19885,-.49254E-3,-.8105E-4,0
STARLINK-5297,2022-141B,2026-06-04T17:13:39.907200,15.08844260,.0001794,53.1891,343.5438,107.9173,252.2015,0,U,54158,999,19885,.14118E-3,.196E-4,0
STARLINK-5294,2022-141C,2026-06-04T17:08:22.866720,15.08809395,.0002148,53.1891,343.5302,47.6495,312.4678,0,U,54159,999,19885,-.23482E-3,-.4021E-4,0
STARLINK-5233,2022-141D,2026-06-04T16:39:50.620896,15.08844996,.0001117,53.1815,298.4815,79.9885,280.1233,0,U,54160,999,19948,.38188E-4,.32E-5,0
STARLINK-5269,2022-141E,2026-06-04T20:20:43.167840,15.08665041,.0002225,53.1878,342.9323,10.4598,349.6440,0,U,54161,999,19887,-.14044E-2,-.22465E-3,0
STARLINK-5273,2022-141F,2026-06-05T02:30:09.122400,15.08758494,.0002168,53.1794,341.6868,48.6059,311.5119,0,U,54162,999,19891,-.65594E-3,-.1069E-3,0
STARLINK-5161,2022-141G,2026-06-05T04:22:41.158848,15.08832766,.0001045,53.1780,331.4865,62.8405,297.2693,0,U,54163,999,19906,.13606E-4,-.71E-6,0
STARLINK-5278,2022-141H,2026-06-05T04:27:59.204160,15.08841472,.000153,53.1798,331.5154,164.0254,196.0786,0,U,54164,999,19906,-.84317E-4,-.163E-4,0
STARLINK-5279,2022-141J,2026-06-05T00:49:21.506016,15.08836307,.0001294,53.1826,341.9608,89.6219,270.4921,0,U,54165,999,19890,.84685E-4,.106E-4,0
STARLINK-5280,2022-141K,2026-06-05T04:17:25.016064,15.08826850,.0001769,53.1797,331.4718,146.0021,214.1084,0,U,54166,999,19906,-.51453E-4,-.1107E-4,0
