[ {"name": "STARLINK-5183", "line1": "1 54084U 22136AK  26156.13734817  .00005054  00000+0  33556-3 0  9997", "line2": "2 54084  53.1802 301.6689 0001959  92.6671 267.4545 15.08820578200188"}, {"name": "STARLINK-5166", "line1": "1 54085U 22136AL  26156.12723834  .00000856  00000+0  71864-4 0  9994", "line2": "2 54085  53.1806 301.5987 0001439  46.1523 313.9587 15.08838418200181"}, {"name": "STARLINK-5211", "line1": "1 54086U 22136AM  26156.06327347 -.00000335  00000+0 -29817-5 0  9993", "line2": "2 54086  53.1840 286.9576 0001429  67.9385 292.1759 15.08834092200381"}, {"name": "STARLINK-5184", "line1": "1 54087U 22136AN  26154.56591038  .00003255  00000+0  22259-3 0  9990", "line2": "2 54087  53.1851 308.2250 0001597 129.6694 230.4439 15.08823935199950"}, {"name": "STARLINK-5153", "line1": "1 54088U 22136AP  26156.13364917  .00000848  00000+0  71384-4 0  9999", "line2": "2 54088  53.1824 301.6378 0000862 108.2450 251.8636 15.08837399200189"}, {"name": "STARLINK-5143", "line1": "1 54089U 22136AQ  26156.11152936  .00001947  00000+0  14038-3 0  9997", "line2": "2 54089  53.1812 301.5175 0001561 107.6026 252.5137 15.08848636200180"}, {"name": "STARLINK-5177", "line1": "1 54090U 22136AR  26156.11519256  .00012277  00000+0  78719-3 0  9995", "line2": "2 54090  53.1769 301.5322 0001567  70.5658 289.5503 15.08882190200182"}, {"name": "STARLINK-5221", "line1": "1 54091U 22136AS  26155.68831247 -.00000196  00000+0  57794-5 0  9994", "line2": "2 54091  53.1806 303.1397 0001618  56.8285 303.2861 15.08833629200123"}, {"name": "STARLINK-5190", "line1": "1 54092U 22136AT  26156.03835242  .00114979  00000+0  57922-3 0  9999", "line2": "2 54092  53.1726 101.2112 0002820  76.2377 283.8959 15.80837651202987"}, {"name": "STARLINK-5213", "line1": "1 54093U 22136AU  26156.10049138 -.00000320  00000+0 -20297-5 0  9992", "line2": "2 54093  53.1809 301.4380 0001157  76.4084 283.7036 15.08832085200181"}, {"name": "STARLINK-5193", "line1": "1 54095U 22136AW  26156.09312124  .00000150  00000+0  27509-4 0  9991", "line2": "2 54095  53.1804 301.3895 0001151  88.5688 271.5436 15.08831872200188"}, {"name": "STARLINK-5188", "line1": "1 54096U 22136AX  26156.10417705  .00000195  00000+0  30334-4 0  9994", "line2": "2 54096  53.1801 301.4649 0001242 115.4880 244.6240 15.08833763200184"}, {"name": "STARLINK-5197", "line1": "1 54097U 22136AY  26155.64833604  .00000511  00000+0  50186-4 0  9992", "line2": "2 54097  53.1798 278.6464 0001371  73.6589 286.4554 15.08830947200468"}, {"name": "STARLINK-5217", "line1": "1 54098U 22136AZ  26155.69303506  .00000297  00000+0  36773-4 0  9998", "line2": "2 54098  53.1814 303.8550 0001348 110.3046 249.8091 15.08834240200117"}, {"name": "STARLINK-5198", "line1": "1 54099U 22136BA  26155.68462529 -.00000597  00000+0 -19410-4 0  9993", "line2": "2 54099  53.1824 303.1077 0001614  59.3696 300.7455 15.08838196200121"}, {"name": "STARLINK-5185", "line1": "1 54100U 22136BB  26156.09680860 -.00000023  00000+0  16661-4 0  9990", "line2": "2 54100  53.1822 301.4136 0001025  87.9697 272.1412 15.08830842200184"}, {"name": "STARLINK-5204", "line1": "1 54101U 22136BC  26156.09730635  .00000838  00000+0  70748-4 0  9996", "line2": "2 54101  53.1815 286.4652 0001323  83.8442 276.2700 15.08839084200391"}, {"name": "STARLINK-5179", "line1": "1 54102U 22136BD  26156.12628662  .00005474  00000+0  36194-3 0  9994", "line2": "2 54102  53.1788 301.5895 0001052  96.7511 263.3601 15.08816983200185"}, {"name": "STARLINK-5200", "line1": "1 54103U 22136BE  26154.64137255 -.00000308  00000+0 -12623-5 0  9999", "line2": "2 54103  53.1837 288.0326 0001225 100.7128 259.4002 15.08832109200247"}, {"name": "STARLINK-5203", "line1": "1 54104U 22136BF  26154.88377338 -.00000207  00000+0  50805-5 0  9995", "line2": "2 54104  53.1831 271.7279 0002045  35.1656 324.9471 15.08829715200490"}, {"name": "STARLINK-5290", "line1": "1 54157U 22141A   26155.70039676 -.00008105  00000+0 -49254-3 0  9991", "line2": "2 54157  53.1877 343.4394 0001823  98.7283 261.3915 15.08776939198859"}, {"name": "STARLINK-5297", "line1": "1 54158U 22141B   26155.71782300  .00001960  00000+0  14118-3 0  9993", "line2": "2 54158  53.1891 343.5438 0001794 107.9173 252.2015 15.08844260198857"}, {"name": "STARLINK-5294", "line1": "1 54159U 22141C   26155.71415355 -.00004021  00000+0 -23482-3 0  9994", "line2": "2 54159  53.1891 343.5302 0002148  47.6495 312.4678 15.08809395198853"}, {"name": "STARLINK-5233", "line1": "1 54160U 22141D   26155.69433589  .00000320  00000+0  38188-4 0  9998", "line2": "2 54160  53.1815 298.4815 0001117  79.9885 280.1233 15.08844996199488"}, {"name": "STARLINK-5269", "line1": "1 54161U 22141E   26155.84772185 -.00022465  00000+0 -14044-2 0  9993", "line2": "2 54161  53.1878 342.9323 0002225  10.4598 349.6440 15.08665041198874"}, {"name": "STARLINK-5273", "line1": "1 54162U 22141F   26156.10427225 -.00010690  00000+0 -65594-3 0  9990", "line2": "2 54162  53.1794 341.6868 0002168  48.6059 311.5119 15.08758494198914"}, {"name": "STARLINK-5161", "line1": "1 54163U 22141G   26156.18242082 -.00000071  00000+0  13606-4 0  9994", "line2": "2 54163  53.1780 331.4865 0001045  62.8405 297.2693 15.08832766199069"}, {"name": "STARLINK-5278", "line1": "1 54164U 22141H   26156.18610190 -.00001630  00000+0 -84317-4 0  9994", "line2": "2 54164  53.1798 331.5154 0001530 164.0254 196.0786 15.08841472199060"}, {"name": "STARLINK-5279", "line1": "1 54165U 22141J   26156.03427669  .00001060  00000+0  84685-4 0  9999", "line2": "2 54165  53.1826 341.9608 0001294  89.6219 270.4921 15.08836307198903"}, {"name": "STARLINK-5280", "line1": "1 54166U 22141K   26156.17876176 -.00001107  00000+0 -51453-4 0  9997", "line2": "2 54166  53.1797 331.4718 0001769 146.0021 214.1084 15.08826850199068"}]